NORAD_CAT_ID,OBJECT_NAME,OBJECT_TYPE,EPOCH,MEAN_MOTION,ECCENTRICITY,INCLINATION,RA_OF_ASC_NODE,ARG_OF_PERICENTER,MEAN_ANOMALY,BSTAR,MEAN_MOTION_DOT,MEAN_MOTION_DDOT,TLE_LINE0,TLE_LINE1,TLE_LINE2,SEMIMAJOR_AXIS,PERIOD,APOGEE,PERIGEE,DECAYED
53888.0,STARLINK-5034,PAYLOAD,2023-12-06 11:25:40,15.08847286,0.0001481,53.2187,64.3498,94.3981,265.718,-4.6732e-05,-1.032e-05,0.0,0 STARLINK-5034,1 53888U 22119C   23340.47616374 -.00001032  00000-0 -46732-4 0  9991,2 53888  53.2187  64.3498 0001481  94.3981 265.7180 15.08847286 67250,6917.858,95.437,540.748,538.699,0.0
53888.0,STARLINK-5034,PAYLOAD,2023-12-07 11:16:27,15.08844214,0.0001549,53.2193,59.8934,97.5334,262.5835,-5.8304e-05,-1.216e-05,0.0,0 STARLINK-5034,1 53888U 22119C   23341.46976350 -.00001216  00000-0 -58304-4 0  9996,2 53888  53.2193  59.8934 0001549  97.5334 262.5835 15.08844214 66982,6917.868,95.437,540.804,538.661,0.0
53888.0,STARLINK-5034,PAYLOAD,2023-12-07 14:27:13,15.08846695,0.000145,53.2188,59.2981,90.5009,269.6149,-3.4697e-05,-8.4e-06,0.0,0 STARLINK-5034,1 53888U 22119C   23341.60224110 -.00000840  00000-0 -34697-4 0  9993,2 53888  53.2188  59.2981 0001450  90.5009 269.6149 15.08846695 67426,6917.86,95.437,540.728,538.722,0.0
53888.0,STARLINK-5034,PAYLOAD,2023-12-08 14:18:00,15.08842353,0.0001473,53.2185,54.838,81.252,278.8639,0.00014784,2.066e-05,0.0,0 STARLINK-5034,1 53888U 22119C   23342.59584009  .00002066  00000-0  14784-3 0  9992,2 53888  53.2185  54.8380 0001473  81.2520 278.8639 15.08842353 67576,6917.873,95.437,540.757,538.719,0.0
53888.0,STARLINK-5034,PAYLOAD,2023-12-09 04:36:29,15.08838376,0.0001517,53.2185,52.1617,80.2783,279.8381,5.5969e-05,6.03e-06,0.0,0 STARLINK-5034,1 53888U 22119C   23343.19200598  .00000603  00000-0  55969-4 0  9993,2 53888  53.2185  52.1617 0001517  80.2783 279.8381 15.08838376 67248,6917.885,95.438,540.8,538.701,0.0
53888.0,STARLINK-5034,PAYLOAD,2023-12-09 10:58:01,15.08839728,0.0001444,53.2189,50.9732,72.7682,287.3468,8.8333e-05,1.118e-05,0.0,0 STARLINK-5034,1 53888U 22119C   23343.45696450  .00001118  00000-0  88333-4 0  9991,2 53888  53.2189  50.9732 0001444  72.7682 287.3468 15.08839728 67702,6917.881,95.438,540.745,538.747,0.0
53888.0,STARLINK-5034,PAYLOAD,2023-12-10 04:27:16,15.08841245,0.0001322,53.2186,47.7015,87.697,272.4174,8.2731e-06,-1.56e-06,0.0,0 STARLINK-5034,1 53888U 22119C   23344.18560431 -.00000156  00000-0  82731-5 0  9990,2 53888  53.2186  47.7015 0001322  87.6970 272.4174 15.08841245 67815,6917.877,95.437,540.656,538.827,0.0
53888.0,STARLINK-5034,PAYLOAD,2023-12-11 10:39:35,15.08845671,0.0001317,53.2195,42.0524,92.626,267.4883,6.4147e-05,7.33e-06,0.0,0 STARLINK-5034,1 53888U 22119C   23345.44415922  .00000733  00000-0  64147-4 0  9994,2 53888  53.2195  42.0524 0001317  92.6260 267.4883 15.08845671 67582,6917.863,95.437,540.639,538.817,0.0
53888.0,STARLINK-5034,PAYLOAD,2023-12-12 10:30:22,15.08838264,0.0001448,53.2189,37.5922,96.6872,263.4285,3.5163e-05,2.72e-06,0.0,0 STARLINK-5034,1 53888U 22119C   23346.43776528  .00000272  00000-0  35163-4 0  9990,2 53888  53.2189  37.5922 0001448  96.6872 263.4285 15.08838264 67733,6917.886,95.438,540.752,538.749,0.0
53888.0,STARLINK-5034,PAYLOAD,2023-12-13 08:45:46,15.08842609,0.0001425,53.2186,33.43,94.5,265.6155,6.2521e-05,7.07e-06,0.0,0 STARLINK-5034,1 53888U 22119C   23347.36512158  .00000707  00000-0  62521-4 0  9991,2 53888  53.2186  33.4300 0001425  94.5000 265.6155 15.08842609 68290,6917.872,95.437,540.723,538.752,0.0
53888.0,STARLINK-5034,PAYLOAD,2023-12-14 08:36:33,15.08838541,0.0001364,53.2183,28.9729,91.6022,268.5127,4.682e-05,4.57e-06,0.0,0 STARLINK-5034,1 53888U 22119C   23348.35872639  .00000457  00000-0  46820-4 0  9990,2 53888  53.2183  28.9729 0001364  91.6022 268.5127 15.08838541 68027,6917.885,95.438,540.693,538.806,0.0
53888.0,STARLINK-5034,PAYLOAD,2023-12-15 10:02:44,15.08838019,0.0001495,53.218,24.2122,75.7224,284.3934,5.01e-05,5.09e-06,0.0,0 STARLINK-5034,1 53888U 22119C   23349.41856864  .00000509  00000-0  50100-4 0  9994,2 53888  53.2180  24.2122 0001495  75.7224 284.3934 15.08838019 68181,6917.886,95.438,540.786,538.717,0.0
53888.0,STARLINK-5034,PAYLOAD,2023-12-16 09:53:31,15.08841283,0.0001956,53.219,19.75,63.3598,296.7595,9.8606e-05,1.282e-05,0.0,0 STARLINK-5034,1 53888U 22119C   23350.41216949  .00001282  00000-0  98606-4 0  9992,2 53888  53.2190  19.7500 0001956  63.3598 296.7595 15.08841283 68750,6917.876,95.437,541.095,538.388,0.0
53888.0,STARLINK-5034,PAYLOAD,2023-12-16 22:36:36,15.08837913,0.0001758,53.218,17.3785,71.1317,288.9866,5.1957e-05,5.39e-06,0.0,0 STARLINK-5034,1 53888U 22119C   23350.94209378  .00000539  00000-0  51957-4 0  9990,2 53888  53.2180  17.3785 0001758  71.1317 288.9866 15.08837913 68416,6917.887,95.438,540.968,538.536,0.0
53888.0,STARLINK-5034,PAYLOAD,2023-12-17 08:08:55,15.0883853,0.0001757,53.2179,15.5941,74.8875,285.2311,6.313e-05,7.17e-06,0.0,0 STARLINK-5034,1 53888U 22119C   23351.33953379  .00000717  00000-0  63130-4 0  9995,2 53888  53.2179  15.5941 0001757  74.8875 285.2311 15.08838530 68899,6917.885,95.438,540.965,538.534,0.0
53888.0,STARLINK-5034,PAYLOAD,2023-12-18 07:59:42,15.08828747,0.0001579,53.2176,11.1305,82.6118,277.5053,0.00051816,7.966e-05,0.0,0 STARLINK-5034,1 53888U 22119C   23352.33312537  .00007966  00000-0  51816-3 0  9991,2 53888  53.2176  11.1305 0001579  82.6118 277.5053 15.08828747 68628,6917.915,95.438,540.872,538.687,0.0
53888.0,STARLINK-5034,PAYLOAD,2023-12-18 22:18:10,15.08836666,0.0001837,53.2183,8.4538,101.1732,258.9467,6.0047e-05,6.68e-06,0.0,0 STARLINK-5034,1 53888U 22119C   23352.92929314  .00000668  00000-0  60047-4 0  9992,2 53888  53.2183   8.4538 0001837 101.1732 258.9467 15.08836666 69137,6917.891,95.438,541.026,538.485,0.0
53888.0,STARLINK-5034,PAYLOAD,2023-12-19 07:50:29,15.0883134,0.0001659,53.2176,6.6657,103.0057,257.1121,-3.81e-05,-8.94e-06,0.0,0 STARLINK-5034,1 53888U 22119C   23353.32673599 -.00000894  00000-0 -38100-4 0  9996,2 53888  53.2176   6.6657 0001659 103.0057 257.1121 15.08831340 69192,6917.907,95.438,540.92,538.624,0.0
53888.0,STARLINK-5034,PAYLOAD,2023-12-20 04:30:30,15.08833191,0.0001371,53.2177,2.7938,87.4225,272.6924,-7.2697e-05,-1.444e-05,0.0,0 STARLINK-5034,1 53888U 22119C   23354.18785828 -.00001444  00000-0 -72697-4 0  9991,2 53888  53.2177   2.7938 0001371  87.4225 272.6924 15.08833191 68902,6917.901,95.438,540.715,538.818,0.0
53888.0,STARLINK-5034,PAYLOAD,2023-12-20 07:41:17,15.08838174,0.0001648,53.2183,2.2072,104.3969,255.7206,2.4394e-05,1e-06,0.0,0 STARLINK-5034,1 53888U 22119C   23354.32033665  .00000100  00000-0  24394-4 0  9999,2 53888  53.2183   2.2072 0001648 104.3969 255.7206 15.08838174 69344,6917.886,95.438,540.891,538.611,0.0
53888.0,STARLINK-5034,PAYLOAD,2023-12-21 04:21:17,15.0884127,0.0001686,53.2182,358.3413,108.0562,252.0614,0.00026408,3.917e-05,0.0,0 STARLINK-5034,1 53888U 22119C   23355.18145744  .00003917  00000-0  26408-3 0  9992,2 53888  53.2182 358.3413 0001686 108.0562 252.0614 15.08841270 69051,6917.877,95.437,540.908,538.575,0.0
53888.0,STARLINK-5034,PAYLOAD,2023-12-21 05:56:40,15.08843965,0.0001582,53.2179,358.0419,101.7259,258.391,0.00030277,4.534e-05,0.0,0 STARLINK-5034,1 53888U 22119C   23355.24769659  .00004534  00000-0  30277-3 0  9991,2 53888  53.2179 358.0419 0001582 101.7259 258.3910 15.08843965 69486,6917.868,95.437,540.828,538.639,0.0
53888.0,STARLINK-5034,PAYLOAD,2023-12-22 04:12:05,15.08840072,0.0001589,53.2173,353.8805,105.0776,255.0392,5.1866e-05,5.38e-06,0.0,0 STARLINK-5034,1 53888U 22119C   23356.17506036  .00000538  00000-0  51866-4 0  9990,2 53888  53.2173 353.8805 0001589 105.0776 255.0392 15.08840072 69204,6917.88,95.438,540.844,538.646,0.0
53888.0,STARLINK-5034,PAYLOAD,2023-12-22 07:22:51,15.08839521,0.0001422,53.217,353.2838,84.8198,275.2956,4.1011e-05,3.65e-06,0.0,0 STARLINK-5034,1 53888U 22119C   23356.30754158  .00000365  00000-0  41011-4 0  9994,2 53888  53.2170 353.2838 0001422  84.8198 275.2956 15.08839521 69644,6917.882,95.438,540.731,538.763,0.0
53888.0,STARLINK-5034,PAYLOAD,2023-12-23 08:49:01,15.08852282,0.0001626,53.2181,348.5177,71.6449,288.472,0.00029208,4.365e-05,0.0,0 STARLINK-5034,1 53888U 22119C   23357.36737686  .00004365  00000-0  29208-3 0  9995,2 53888  53.2181 348.5177 0001626  71.6449 288.4720 15.08852282 69383,6917.843,95.437,540.833,538.583,0.0
53888.0,STARLINK-5034,PAYLOAD,2023-12-24 03:53:39,15.08841703,0.0001804,53.217,344.9555,116.1463,243.9715,0.00013181,1.81e-05,0.0,0 STARLINK-5034,1 53888U 22119C   23358.16226146  .00001810  00000-0  13181-3 0  9993,2 53888  53.2170 344.9555 0001804 116.1463 243.9715 15.08841703 69500,6917.875,95.437,540.988,538.492,0.0
53888.0,STARLINK-5034,PAYLOAD,2023-12-24 05:29:02,15.08840411,0.0001587,53.217,344.6589,114.4272,245.6886,0.00010981,1.46e-05,0.0,0 STARLINK-5034,1 53888U 22119C   23358.22850191  .00001460  00000-0  10981-3 0  9999,2 53888  53.2170 344.6589 0001587 114.4272 245.6886 15.08840411 69931,6917.879,95.438,540.842,538.646,0.0
53888.0,STARLINK-5034,PAYLOAD,2023-12-24 22:58:17,15.08844953,0.0001525,53.2168,341.3894,108.6442,251.4715,0.0001144,1.533e-05,0.0,0 STARLINK-5034,1 53888U 22119C   23358.95714235  .00001533  00000-0  11440-3 0  9999,2 53888  53.2168 341.3894 0001525 108.6442 251.4715 15.08844953 70042,6917.865,95.437,540.785,538.675,0.0
53888.0,STARLINK-5034,PAYLOAD,2023-12-25 08:30:35,15.08860533,0.0001406,53.216,339.6047,100.404,259.711,0.00046508,7.126e-05,0.0,0 STARLINK-5034,1 53888U 22119C   23359.35457609  .00007126  00000-0  46508-3 0  9990,2 53888  53.2160 339.6047 0001406 100.4040 259.7110 15.08860533 69686,6917.818,95.436,540.655,538.71,0.0
53888.0,STARLINK-5034,PAYLOAD,2023-12-25 22:49:04,15.08836562,0.0001508,53.2173,336.9305,86.4784,273.6381,9.1046e-05,1.161e-05,0.0,0 STARLINK-5034,1 53888U 22119C   23359.95074722  .00001161  00000-0  91046-4 0  9998,2 53888  53.2173 336.9305 0001508  86.4784 273.6381 15.08836562 70196,6917.891,95.438,540.799,538.713,0.0
